[{"OBJECT_NAME":"ONEWEB-0528","OBJECT_ID":"2022-166B","EPOCH":"2025-10-11T06:54:27.832896","MEAN_MOTION":13.21860245,"ECCENTRICITY":0.0001894,"INCLINATION":87.917,"RA_OF_ASC_NODE":293.669,"ARG_OF_PERICENTER":94.3526,"MEAN_ANOMALY":265.7824,"EPHEMERIS_TYPE":0,"CLASSIFICATION_TYPE":"U","NORAD_CAT_ID":54643,"ELEMENT_SET_NO":999,"REV_AT_EPOCH":13866,"BSTAR":0.00012699592,"MEAN_MOTION_DOT":6.6e-7,"MEAN_MOTION_DDOT":0},{"OBJECT_NAME":"ONEWEB-0539","OBJECT_ID":"2022-166C","EPOCH":"2025-10-11T07:47:15.630144","MEAN_MOTION":13.21716311,"ECCENTRICITY":0.00017395,"INCLINATION":87.9167,"RA_OF_ASC_NODE":293.6281,"ARG_OF_PERICENTER":88.6291,"MEAN_ANOMALY":271.5043,"EPHEMERIS_TYPE":0,"CLASSIFICATION_TYPE":"U","NORAD_CAT_ID":54644,"ELEMENT_SET_NO":999,"REV_AT_EPOCH":13866,"BSTAR":-0.0023138152,"MEAN_MOTION_DOT":-9.41e-6,"MEAN_MOTION_DDOT":0},{"OBJECT_NAME":"ONEWEB-0540","OBJECT_ID":"2022-166D","EPOCH":"2025-10-11T07:56:38.514912","MEAN_MOTION":13.21701885,"ECCENTRICITY":0.00016942,"INCLINATION":87.9165,"RA_OF_ASC_NODE":293.665,"ARG_OF_PERICENTER":87.5171,"MEAN_ANOMALY":272.6157,"EPHEMERIS_TYPE":0,"CLASSIFICATION_TYPE":"U","NORAD_CAT_ID":54645,"ELEMENT_SET_NO":999,"REV_AT_EPOCH":13865,"BSTAR":4.9160592e-5,"MEAN_MOTION_DOT":3.3e-7,"MEAN_MOTION_DDOT":0},{"OBJECT_NAME":"ONEWEB-0542","OBJECT_ID":"2022-166E","EPOCH":"2025-10-11T06:11:59.974656","MEAN_MOTION":13.21687277,"ECCENTRICITY":0.00016843,"INCLINATION":87.9162,"RA_OF_ASC_NODE":293.6391,"ARG_OF_PERICENTER":80.9362,"MEAN_ANOMALY":279.1962,"EPHEMERIS_TYPE":0,"CLASSIFICATION_TYPE":"U","NORAD_CAT_ID":54646,"ELEMENT_SET_NO":999,"REV_AT_EPOCH":13865,"BSTAR":-0.0014338253,"MEAN_MOTION_DOT":-5.78e-6,"MEAN_MOTION_DDOT":0},{"OBJECT_NAME":"ONEWEB-0545","OBJECT_ID":"2022-166F","EPOCH":"2025-10-11T07:12:49.006944","MEAN_MOTION":13.21815898,"ECCENTRICITY":0.00014824,"INCLINATION":87.9168,"RA_OF_ASC_NODE":293.6501,"ARG_OF_PERICENTER":82.9689,"MEAN_ANOMALY":277.1614,"EPHEMERIS_TYPE":0,"CLASSIFICATION_TYPE":"U","NORAD_CAT_ID":54647,"ELEMENT_SET_NO":999,"REV_AT_EPOCH":13862,"BSTAR":-0.0020292348,"MEAN_MOTION_DOT":-8.25e-6,"MEAN_MOTION_DDOT":0},{"OBJECT_NAME":"ONEWEB-0580","OBJECT_ID":"2022-166G","EPOCH":"2025-10-11T06:34:24.692160","MEAN_MOTION":13.21770844,"ECCENTRICITY":0.0001723,"INCLINATION":87.9163,"RA_OF_ASC_NODE":293.6538,"ARG_OF_PERICENTER":79.8816,"MEAN_ANOMALY":280.2512,"EPHEMERIS_TYPE":0,"CLASSIFICATION_TYPE":"U","NORAD_CAT_ID":54648,"ELEMENT_SET_NO":999,"REV_AT_EPOCH":13866,"BSTAR":-0.00010845187,"MEAN_MOTION_DOT":-3.2e-7,"MEAN_MOTION_DDOT":0},{"OBJECT_NAME":"ONEWEB-0582","OBJECT_ID":"2022-166H","EPOCH":"2025-10-11T07:35:47.611392","MEAN_MOTION":13.2175517,"ECCENTRICITY":0.0001682,"INCLINATION":87.9159,"RA_OF_ASC_NODE":293.6381,"ARG_OF_PERICENTER":76.2705,"MEAN_ANOMALY":283.8616,"EPHEMERIS_TYPE":0,"CLASSIFICATION_TYPE":"U","NORAD_CAT_ID":54649,"ELEMENT_SET_NO":999,"REV_AT_EPOCH":13864,"BSTAR":-0.00044407468,"MEAN_MOTION_DOT":-1.7e-6,"MEAN_MOTION_DDOT":0},{"OBJECT_NAME":"ONEWEB-0583","OBJECT_ID":"2022-166J","EPOCH":"2025-10-11T07:51:50.125536","MEAN_MOTION":13.21710376,"ECCENTRICITY":0.00017598,"INCLINATION":87.9165,"RA_OF_ASC_NODE":293.6617,"ARG_OF_PERICENTER":89.2614,"MEAN_ANOMALY":270.8721,"EPHEMERIS_TYPE":0,"CLASSIFICATION_TYPE":"U","NORAD_CAT_ID":54650,"ELEMENT_SET_NO":999,"REV_AT_EPOCH":13865,"BSTAR":-0.00088585898,"MEAN_MOTION_DOT":-3.52e-6,"MEAN_MOTION_DDOT":0},{"OBJECT_NAME":"ONEWEB-0584","OBJECT_ID":"2022-166K","EPOCH":"2025-10-11T06:32:05.078400","MEAN_MOTION":13.21776423,"ECCENTRICITY":0.00018382,"INCLINATION":87.9166,"RA_OF_ASC_NODE":293.6577,"ARG_OF_PERICENTER":79.1795,"MEAN_ANOMALY":280.9546,"EPHEMERIS_TYPE":0,"CLASSIFICATION_TYPE":"U","NORAD_CAT_ID":54651,"ELEMENT_SET_NO":999,"REV_AT_EPOCH":13863,"BSTAR":-0.00072886151,"MEAN_MOTION_DOT":-2.88e-6,"MEAN_MOTION_DDOT":0},{"OBJECT_NAME":"ONEWEB-0585","OBJECT_ID":"2022-166L","EPOCH":"2025-10-11T07:08:15.604512","MEAN_MOTION":13.21825541,"ECCENTRICITY":0.00019728,"INCLINATION":87.9161,"RA_OF_ASC_NODE":293.6379,"ARG_OF_PERICENTER":93.4595,"MEAN_ANOMALY":266.6764,"EPHEMERIS_TYPE":0,"CLASSIFICATION_TYPE":"U","NORAD_CAT_ID":54652,"ELEMENT_SET_NO":999,"REV_AT_EPOCH":13864,"BSTAR":6.6570051e-5,"MEAN_MOTION_DOT":4.1e-7,"MEAN_MOTION_DDOT":0},{"OBJECT_NAME":"ONEWEB-0586","OBJECT_ID":"2022-166M","EPOCH":"2025-10-11T01:59:35.893248","MEAN_MOTION":13.2177836,"ECCENTRICITY":0.00017165,"INCLINATION":87.9165,"RA_OF_ASC_NODE":293.7063,"ARG_OF_PERICENTER":87.7422,"MEAN_ANOMALY":272.3908,"EPHEMERIS_TYPE":0,"CLASSIFICATION_TYPE":"U","NORAD_CAT_ID":54653,"ELEMENT_SET_NO":999,"REV_AT_EPOCH":13861,"BSTAR":-2.3643199e-5,"MEAN_MOTION_DOT":3.0e-8,"MEAN_MOTION_DDOT":0},{"OBJECT_NAME":"ONEWEB-0587","OBJECT_ID":"2022-166N","EPOCH":"2025-10-11T02:13:20.110368","MEAN_MOTION":13.21743725,"ECCENTRICITY":0.00021905,"INCLINATION":87.9175,"RA_OF_ASC_NODE":293.6541,"ARG_OF_PERICENTER":98.2449,"MEAN_ANOMALY":261.8933,"EPHEMERIS_TYPE":0,"CLASSIFICATION_TYPE":"U","NORAD_CAT_ID":54654,"ELEMENT_SET_NO":999,"REV_AT_EPOCH":13877,"BSTAR":0.00019905936,"MEAN_MOTION_DOT":9.5e-7,"MEAN_MOTION_DDOT":0},{"OBJECT_NAME":"ONEWEB-0589","OBJECT_ID":"2022-166P","EPOCH":"2025-10-11T07:22:02.362656","MEAN_MOTION":13.21790454,"ECCENTRICITY":0.00017883,"INCLINATION":87.9164,"RA_OF_ASC_NODE":293.6528,"ARG_OF_PERICENTER":63.4151,"MEAN_ANOMALY":296.7166,"EPHEMERIS_TYPE":0,"CLASSIFICATION_TYPE":"U","NORAD_CAT_ID":54655,"ELEMENT_SET_NO":999,"REV_AT_EPOCH":13866,"BSTAR":2.99259e-7,"MEAN_MOTION_DOT":1.3e-7,"MEAN_MOTION_DDOT":0},{"OBJECT_NAME":"ONEWEB-0590","OBJECT_ID":"2022-166Q","EPOCH":"2025-10-11T07:56:16.142496","MEAN_MOTION":13.21699515,"ECCENTRICITY":0.00023256,"INCLINATION":87.9164,"RA_OF_ASC_NODE":293.6239,"ARG_OF_PERICENTER":85.8647,"MEAN_ANOMALY":274.2753,"EPHEMERIS_TYPE":0,"CLASSIFICATION_TYPE":"U","NORAD_CAT_ID":54656,"ELEMENT_SET_NO":999,"REV_AT_EPOCH":13865,"BSTAR":4.3575811e-5,"MEAN_MOTION_DOT":3.1e-7,"MEAN_MOTION_DDOT":0},{"OBJECT_NAME":"ONEWEB-0591","OBJECT_ID":"2022-166R","EPOCH":"2025-10-11T06:25:14.020032","MEAN_MOTION":13.21795879,"ECCENTRICITY":0.00018868,"INCLINATION":87.9161,"RA_OF_ASC_NODE":293.6606,"ARG_OF_PERICENTER":87.0757,"MEAN_ANOMALY":273.0593,"EPHEMERIS_TYPE":0,"CLASSIFICATION_TYPE":"U","NORAD_CAT_ID":54657,"ELEMENT_SET_NO":999,"REV_AT_EPOCH":13867,"BSTAR":-0.00016245463,"MEAN_MOTION_DOT":-5.4e-7,"MEAN_MOTION_DDOT":0},{"OBJECT_NAME":"ONEWEB-0592","OBJECT_ID":"2022-166S","EPOCH":"2025-10-11T06:29:49.083936","MEAN_MOTION":13.21785042,"ECCENTRICITY":0.00019008,"INCLINATION":87.9172,"RA_OF_ASC_NODE":293.6168,"ARG_OF_PERICENTER":87.3444,"MEAN_ANOMALY":272.7908,"EPHEMERIS_TYPE":0,"CLASSIFICATION_TYPE":"U","NORAD_CAT_ID":54658,"ELEMENT_SET_NO":999,"REV_AT_EPOCH":13855,"BSTAR":0.0002569063,"MEAN_MOTION_DOT":1.19e-6,"MEAN_MOTION_DDOT":0},{"OBJECT_NAME":"ONEWEB-0593","OBJECT_ID":"2022-166T","EPOCH":"2025-10-11T07:03:37.882080","MEAN_MOTION":13.21837423,"ECCENTRICITY":0.00016719,"INCLINATION":87.9162,"RA_OF_ASC_NODE":293.645,"ARG_OF_PERICENTER":89.5967,"MEAN_ANOMALY":270.5358,"EPHEMERIS_TYPE":0,"CLASSIFICATION_TYPE":"U","NORAD_CAT_ID":54659,"ELEMENT_SET_NO":999,"REV_AT_EPOCH":13866,"BSTAR":-7.19798e-7,"MEAN_MOTION_DOT":1.3e-7,"MEAN_MOTION_DDOT":0},{"OBJECT_NAME":"ONEWEB-0594","OBJECT_ID":"2022-166U","EPOCH":"2025-10-11T07:31:11.921952","MEAN_MOTION":13.21767417,"ECCENTRICITY":0.00018199,"INCLINATION":87.9166,"RA_OF_ASC_NODE":293.6586,"ARG_OF_PERICENTER":92.2989,"MEAN_ANOMALY":267.8353,"EPHEMERIS_TYPE":0,"CLASSIFICATION_TYPE":"U","NORAD_CAT_ID":54660,"ELEMENT_SET_NO":999,"REV_AT_EPOCH":13868,"BSTAR":0.0002251152,"MEAN_MOTION_DOT":1.06e-6,"MEAN_MOTION_DDOT":0},{"OBJECT_NAME":"ONEWEB-0595","OBJECT_ID":"2022-166V","EPOCH":"2025-10-11T06:59:03.762528","MEAN_MOTION":13.21848816,"ECCENTRICITY":0.00020478,"INCLINATION":87.9164,"RA_OF_ASC_NODE":293.6377,"ARG_OF_PERICENTER":93.7865,"MEAN_ANOMALY":266.3503,"EPHEMERIS_TYPE":0,"CLASSIFICATION_TYPE":"U","NORAD_CAT_ID":54661,"ELEMENT_SET_NO":999,"REV_AT_EPOCH":13865,"BSTAR":0.00016617003,"MEAN_MOTION_DOT":8.2e-7,"MEAN_MOTION_DDOT":0},{"OBJECT_NAME":"ONEWEB-0596","OBJECT_ID":"2022-166W","EPOCH":"2025-10-11T02:42:37.048320","MEAN_MOTION":13.21807935,"ECCENTRICITY":0.00019174,"INCLINATION":87.9167,"RA_OF_ASC_NODE":293.6891,"ARG_OF_PERICENTER":89.6278,"MEAN_ANOMALY":270.5076,"EPHEMERIS_TYPE":0,"CLASSIFICATION_TYPE":"U","NORAD_CAT_ID":54662,"ELEMENT_SET_NO":999,"REV_AT_EPOCH":13863,"BSTAR":-0.00039672304,"MEAN_MOTION_DOT":-1.51e-6,"MEAN_MOTION_DDOT":0},{"OBJECT_NAME":"ONEWEB-0597","OBJECT_ID":"2022-166X","EPOCH":"2025-10-11T07:42:39.522528","MEAN_MOTION":13.21734292,"ECCENTRICITY":0.00018427,"INCLINATION":87.9166,"RA_OF_ASC_NODE":293.6514,"ARG_OF_PERICENTER":87.3398,"MEAN_ANOMALY":272.7947,"EPHEMERIS_TYPE":0,"CLASSIFICATION_TYPE":"U","NORAD_CAT_ID":54663,"ELEMENT_SET_NO":999,"REV_AT_EPOCH":13866,"BSTAR":-0.00044779034,"MEAN_MOTION_DOT":-1.72e-6,"MEAN_MOTION_DDOT":0},{"OBJECT_NAME":"ONEWEB-0600","OBJECT_ID":"2022-166Y","EPOCH":"2025-10-11T07:17:25.230336","MEAN_MOTION":13.21801457,"ECCENTRICITY":0.00016941,"INCLINATION":87.9159,"RA_OF_ASC_NODE":293.6462,"ARG_OF_PERICENTER":89.7761,"MEAN_ANOMALY":270.3567,"EPHEMERIS_TYPE":0,"CLASSIFICATION_TYPE":"U","NORAD_CAT_ID":54664,"ELEMENT_SET_NO":999,"REV_AT_EPOCH":13863,"BSTAR":-1.3403854e-5,"MEAN_MOTION_DOT":7.0e-8,"MEAN_MOTION_DDOT":0},{"OBJECT_NAME":"ONEWEB-0601","OBJECT_ID":"2022-166Z","EPOCH":"2025-10-11T01:38:56.780736","MEAN_MOTION":13.21830663,"ECCENTRICITY":0.00017263,"INCLINATION":87.9162,"RA_OF_ASC_NODE":293.7108,"ARG_OF_PERICENTER":81.3584,"MEAN_ANOMALY":278.7745,"EPHEMERIS_TYPE":0,"CLASSIFICATION_TYPE":"U","NORAD_CAT_ID":54665,"ELEMENT_SET_NO":999,"REV_AT_EPOCH":13879,"BSTAR":3.0388644e-5,"MEAN_MOTION_DOT":2.6e-7,"MEAN_MOTION_DDOT":0}]
